STARLINK-30279          
1 57885U 23144X   26068.00004630  .00057324  00000+0  21326-2 0  9998
2 57885  43.0000 288.7150 0001487 259.3260 199.1729 15.26701549  5788
TRANSPORTER-14 OBJECT AC
1 64554U 25135AC  26068.82113864  .00024574  00000+0  93234-3 0  9990
2 64554  97.4518 185.7428 0001008 268.0523  92.0600 15.26845403 39827
